{
  "norad_id": 63942,
  "name": "STARLINK-34014",
  "history": [
    {
      "epoch": "2026-03-28T18:52:10.581312",
      "apogee_km": 573.9761009679778,
      "perigee_km": 570.1088820952991,
      "latitude_deg": -42.59294175380088,
      "longitude_deg": -70.32157632010058,
      "semi_major_axis_km": 6950.179491531638,
      "eccentricity": 0.00027821,
      "inclination_deg": 70.0006,
      "raan_deg": 226.2744,
      "arg_perigee_deg": 273.3475,
      "mean_anomaly_deg": 86.7366,
      "mean_motion_rev_day": 14.98334333
    }
  ]
}