{"fetched_at":"2026-03-29T16:36:15Z","count":15609,"tles":[{"name":"STARLINK-34014","line1":"1 63942U 25098S   26087.78623358  .00008514  00000+0  72037-3 0  9992","line2":"2 63942  70.0006 226.2744 0002782 273.3475  86.7366 14.98334333 49400","category":"Starlink"}]}